{"type": "FeatureCollection", "features": [ {"type": "Feature", "properties": {"norad_id": 35744, "name": "IRIDIUM 33 DEB", "group": "iridium-33-debris", "lat": 25.309264977765835, "lon": 144.5777737564246, "alt_km": 647.4320753584243, "timestamp": "2025-12-10T18:57:00.450729+00:00", "meta": {"OBJECT_NAME": "IRIDIUM 33 DEB", "OBJECT_ID": "1997-051RX", "EPOCH": "2025-12-09T22:39:23.810112", "MEAN_MOTION": 14.7093186, "ECCENTRICITY": 0.00199873, "INCLINATION": 86.3295, "RA_OF_ASC_NODE": 326.6992, "ARG_OF_PERICENTER": 202.5646, "MEAN_ANOMALY": 157.4694, "EPHEMERIS_TYPE": 0, "CLASSIFICATION_TYPE": "U", "NORAD_CAT_ID": 35744, "ELEMENT_SET_NO": 999, "REV_AT_EPOCH": 87290, "BSTAR": 0.0016996906, "MEAN_MOTION_DOT": 0.00010469, "MEAN_MOTION_DDOT": 0}, "tle": {"line1": "1 35744U 97051RX  25343.94402558  .00010469  00000+0  16997-2 0  9992", "line2": "2 35744  86.3295 326.6992 0019987 202.5646 157.4694 14.70931860872905"}}, "geometry": {"type": "Point", "coordinates": [144.5777737564246, 25.309264977765835]}}, {"type": "Feature", "properties": {"norad_id": 35797, "name": "IRIDIUM 33 DEB", "group": "iridium-33-debris", "lat": 19.574612982426217, "lon": 149.56350160175955, "alt_km": 612.1500416874069, "timestamp": "2025-12-10T18:57:00.450739+00:00", "meta": {"OBJECT_NAME": "IRIDIUM 33 DEB", "OBJECT_ID": "1997-051SF", "EPOCH": "2025-12-09T16:18:47.257632", "MEAN_MOTION": 14.82622321, "ECCENTRICITY": 0.00129609, "INCLINATION": 86.3364, "RA_OF_ASC_NODE": 331.3786, "ARG_OF_PERICENTER": 157.766, "MEAN_ANOMALY": 202.4127, "EPHEMERIS_TYPE": 0, "CLASSIFICATION_TYPE": "U", "NORAD_CAT_ID": 35797, "ELEMENT_SET_NO": 999, "REV_AT_EPOCH": 87295, "BSTAR": 0.0027081228, "MEAN_MOTION_DOT": 0.00021904, "MEAN_MOTION_DDOT": 0}, "tle": {"line1": "1 35797U 97051SF  25343.67971363  .00021904  00000+0  27081-2 0  9997", "line2": "2 35797  86.3364 331.3786 0012960 157.7660 202.4127 14.82622321872954"}}, "geometry": {"type": "Point", "coordinates": [149.56350160175955, 19.574612982426217]}}, {"type": "Feature", "properties": {"norad_id": 35806, "name": "IRIDIUM 33 DEB", "group": "iridium-33-debris", "lat": -75.30415192383859, "lon": 7.3780113040676785, "alt_km": 719.6077536122639, "timestamp": "2025-12-10T18:57:00.450750+00:00", "meta": {"OBJECT_NAME": "IRIDIUM 33 DEB", "OBJECT_ID": "1997-051SQ", "EPOCH": "2025-12-06T09:49:43.789440", "MEAN_MOTION": 14.5725267, "ECCENTRICITY": 0.0016158, "INCLINATION": 86.344, "RA_OF_ASC_NODE": 23.4162, "ARG_OF_PERICENTER": 94.3917, "MEAN_ANOMALY": 265.9138, "EPHEMERIS_TYPE": 0, "CLASSIFICATION_TYPE": "U", "NORAD_CAT_ID": 35806, "ELEMENT_SET_NO": 999, "REV_AT_EPOCH": 86232, "BSTAR": 0.0020153904, "MEAN_MOTION_DOT": 9.149e-05, "MEAN_MOTION_DDOT": 0}, "tle": {"line1": "1 35806U 97051SQ  25340.40953460  .00009149  00000+0  20154-2 0  9995", "line2": "2 35806  86.3440  23.4162 0016158  94.3917 265.9138 14.57252670862325"}}, "geometry": {"type": "Point", "coordinates": [7.3780113040676785, -75.30415192383859]}}, {"type": "Feature", "properties": {"norad_id": 35809, "name": "IRIDIUM 33 DEB", "group": "iridium-33-debris", "lat": 19.525427722451365, "lon": 154.93168805057883, "alt_km": 643.8448827125003, "timestamp": "2025-12-10T18:57:00.450759+00:00", "meta": {"OBJECT_NAME": "IRIDIUM 33 DEB", "OBJECT_ID": "1997-051ST", "EPOCH": "2025-12-06T06:48:24.450912", "MEAN_MOTION": 14.75488502, "ECCENTRICITY": 0.00096585, "INCLINATION": 86.3276, "RA_OF_ASC_NODE": 338.2877, "ARG_OF_PERICENTER": 270.8385, "MEAN_ANOMALY": 89.1727, "EPHEMERIS_TYPE": 0, "CLASSIFICATION_TYPE": "U", "NORAD_CAT_ID": 35809, "ELEMENT_SET_NO": 999, "REV_AT_EPOCH": 86712, "BSTAR": 0.0029776157, "MEAN_MOTION_DOT": 0.00020329, "MEAN_MOTION_DDOT": 0}, "tle": {"line1": "1 35809U 97051ST  25340.28361633  .00020329  00000+0  29776-2 0  9991", "line2": "2 35809  86.3276 338.2877 0009658 270.8385  89.1727 14.75488502867120"}}, "geometry": {"type": "Point", "coordinates": [154.93168805057883, 19.525427722451365]}}, {"type": "Feature", "properties": {"norad_id": 35846, "name": "IRIDIUM 33 DEB", "group": "iridium-33-debris", "lat": 10.602399009203411, "lon": -121.00712950346146, "alt_km": 736.5825994955158, "timestamp": "2025-12-10T18:57:00.450769+00:00", "meta": {"OBJECT_NAME": "IRIDIUM 33 DEB", "OBJECT_ID": "1997-051SW", "EPOCH": "2025-12-09T15:32:33.553248", "MEAN_MOTION": 14.43141071, "ECCENTRICITY": 0.00185243, "INCLINATION": 86.3746, "RA_OF_ASC_NODE": 60.1601, "ARG_OF_PERICENTER": 179.7602, "MEAN_ANOMALY": 180.3611, "EPHEMERIS_TYPE": 0, "CLASSIFICATION_TYPE": "U", "NORAD_CAT_ID": 35846, "ELEMENT_SET_NO": 999, "REV_AT_EPOCH": 71284, "BSTAR": 0.0010426012, "MEAN_MOTION_DOT": 3.526e-05, "MEAN_MOTION_DDOT": 0}, "tle": {"line1": "1 35846U 97051SW  25343.64761057  .00003526  00000+0  10426-2 0  9991", "line2": "2 35846  86.3746  60.1601 0018524 179.7602 180.3611 14.43141071712846"}}, "geometry": {"type": "Point", "coordinates": [-121.00712950346146, 10.602399009203411]}}, {"type": "Feature", "properties": {"norad_id": 35848, "name": "IRIDIUM 33 DEB", "group": "iridium-33-debris", "lat": 85.69079408166931, "lon": 140.16808524348292, "alt_km": 628.2584035496202, "timestamp": "2025-12-10T18:57:00.450779+00:00", "meta": {"OBJECT_NAME": "IRIDIUM 33 DEB", "OBJECT_ID": "1997-051SY", "EPOCH": "2025-12-06T20:19:25.547808", "MEAN_MOTION": 14.78448907, "ECCENTRICITY": 0.00071808, "INCLINATION": 86.3929, "RA_OF_ASC_NODE": 18.7802, "ARG_OF_PERICENTER": 219.4527, "MEAN_ANOMALY": 140.6171, "EPHEMERIS_TYPE": 0, "CLASSIFICATION_TYPE": "U", "NORAD_CAT_ID": 35848, "ELEMENT_SET_NO": 999, "REV_AT_EPOCH": 66603, "BSTAR": 0.0027695976, "MEAN_MOTION_DOT": 0.0002026, "MEAN_MOTION_DDOT": 0}, "tle": {"line1": "1 35848U 97051SY  25340.84682347  .00020260  00000+0  27696-2 0  9997", "line2": "2 35848  86.3929  18.7802 0007180 219.4527 140.6171 14.78448907666032"}}, "geometry": {"type": "Point", "coordinates": [140.16808524348292, 85.69079408166931]}}, {"type": "Feature", "properties": {"norad_id": 35850, "name": "IRIDIUM 33 DEB", "group": "iridium-33-debris", "lat": 56.01573871339931, "lon": -9.4310732451955, "alt_km": 632.3190284097809, "timestamp": "2025-12-10T18:57:00.450789+00:00", "meta": {"OBJECT_NAME": "IRIDIUM 33 DEB", "OBJECT_ID": "1997-051TA", "EPOCH": "2025-12-06T07:30:15.621984", "MEAN_MOTION": 14.78601393, "ECCENTRICITY": 0.00083892, "INCLINATION": 86.3487, "RA_OF_ASC_NODE": 347.1693, "ARG_OF_PERICENTER": 210.267, "MEAN_ANOMALY": 149.8067, "EPHEMERIS_TYPE": 0, "CLASSIFICATION_TYPE": "U", "NORAD_CAT_ID": 35850, "ELEMENT_SET_NO": 999, "REV_AT_EPOCH": 71262, "BSTAR": 0.0028291764, "MEAN_MOTION_DOT": 0.00020775, "MEAN_MOTION_DDOT": 0}, "tle": {"line1": "1 35850U 97051TA  25340.31268081  .00020775  00000+0  28292-2 0  9991", "line2": "2 35850  86.3487 347.1693 0008389 210.2670 149.8067 14.78601393712623"}}, "geometry": {"type": "Point", "coordinates": [-9.4310732451955, 56.01573871339931]}}, {"type": "Feature", "properties": {"norad_id": 35915, "name": "IRIDIUM 33 DEB", "group": "iridium-33-debris", "lat": -17.41393572924594, "lon": -17.300752854819226, "alt_km": 638.2485912459515, "timestamp": "2025-12-10T18:57:00.450799+00:00", "meta": {"OBJECT_NAME": "IRIDIUM 33 DEB", "OBJECT_ID": "1997-051TY", "EPOCH": "2025-12-07T18:02:16.498176", "MEAN_MOTION": 14.80542095, "ECCENTRICITY": 0.00101746, "INCLINATION": 86.3429, "RA_OF_ASC_NODE": 345.2367, "ARG_OF_PERICENTER": 205.9072, "MEAN_ANOMALY": 154.1641, "EPHEMERIS_TYPE": 0, "CLASSIFICATION_TYPE": "U", "NORAD_CAT_ID": 35915, "ELEMENT_SET_NO": 999, "REV_AT_EPOCH": 8012, "BSTAR": 0.0030076362, "MEAN_MOTION_DOT": 0.00023136, "MEAN_MOTION_DDOT": 0}, "tle": {"line1": "1 35915U 97051TY  25341.75157984  .00023136  00000+0  30076-2 0  9998", "line2": "2 35915  86.3429 345.2367 0010174 205.9072 154.1641 14.80542095 80126"}}, "geometry": {"type": "Point", "coordinates": [-17.300752854819226, -17.41393572924594]}}, {"type": "Feature", "properties": {"norad_id": 35918, "name": "IRIDIUM 33 DEB", "group": "iridium-33-debris", "lat": -16.221157128042073, "lon": 75.6031851210206, "alt_km": 745.596497892504, "timestamp": "2025-12-10T18:57:00.450809+00:00", "meta": {"OBJECT_NAME": "IRIDIUM 33 DEB", "OBJECT_ID": "1997-051UB", "EPOCH": "2025-12-09T13:18:26.589888", "MEAN_MOTION": 14.51197516, "ECCENTRICITY": 0.0027351, "INCLINATION": 86.4004, "RA_OF_ASC_NODE": 77.1826, "ARG_OF_PERICENTER": 180.0208, "MEAN_ANOMALY": 195.2602, "EPHEMERIS_TYPE": 0, "CLASSIFICATION_TYPE": "U", "NORAD_CAT_ID": 35918, "ELEMENT_SET_NO": 999, "REV_AT_EPOCH": 85161, "BSTAR": 0.0018636, "MEAN_MOTION_DOT": 7.457e-05, "MEAN_MOTION_DDOT": 0}, "tle": {"line1": "1 35918U 97051UB  25343.55447442  .00007457  00000+0  18636-2 0  9998", "line2": "2 35918  86.4004  77.1826 0027351 180.0208 195.2602 14.51197516851614"}}, "geometry": {"type": "Point", "coordinates": [75.6031851210206, -16.221157128042073]}}, {"type": "Feature", "properties": {"norad_id": 35929, "name": "IRIDIUM 33 DEB", "group": "iridium-33-debris", "lat": 82.16456382444406, "lon": 105.7824331979718, "alt_km": 545.2755807912017, "timestamp": "2025-12-10T18:57:00.450819+00:00", "meta": {"OBJECT_NAME": "IRIDIUM 33 DEB", "OBJECT_ID": "1997-051UN", "EPOCH": "2025-12-10T04:07:57.675648", "MEAN_MOTION": 15.02123789, "ECCENTRICITY": 0.00184888, "INCLINATION": 86.3336, "RA_OF_ASC_NODE": 313.8473, "ARG_OF_PERICENTER": 44.9144, "MEAN_ANOMALY": 315.3582, "EPHEMERIS_TYPE": 0, "CLASSIFICATION_TYPE": "U", "NORAD_CAT_ID": 35929, "ELEMENT_SET_NO": 999, "REV_AT_EPOCH": 87741, "BSTAR": 0.0038329706, "MEAN_MOTION_DOT": 0.00050875, "MEAN_MOTION_DDOT": 0}, "tle": {"line1": "1 35929U 97051UN  25344.17219532  .00050875  00000+0  38330-2 0  9991", "line2": "2 35929  86.3336 313.8473 0018488  44.9144 315.3582 15.02123789877415"}}, "geometry": {"type": "Point", "coordinates": [105.7824331979718, 82.16456382444406]}}]}